IDEFIX & ARIANE 42P R/B 
1 27422U 02021B   26030.73873225  .00000414  00000+0  17409-3 0  9992
2 27422  98.5834 329.8080 0010920 303.0965  56.9169 14.30996804238591
AQUA                    
1 27424U 02022A   26031.18312090  .00001340  00000+0  27782-3 0  9997
2 27424  98.4107 357.8851 0001774  60.4235  29.4076 14.61877859263258
CZ-4B R/B               
1 27432U 02024C   26031.16058709  .00000054  00000+0  50740-4 0  9992
2 27432  98.8920  84.7417 0050960 129.0104 297.9301 14.14540335223934
MIDORI II (ADEOS-II)    
1 27597U 02056A   26030.86072959  .00000442  00000+0  19146-3 0  9993
2 27597  98.7704 349.0937 0002061  96.1274 264.0143 14.29254077204894
H-2A R/B                
1 27601U 02056E   26031.15171534  .00000402  00000+0  15586-3 0  9991
2 27601  98.3134 352.9623 0069039 273.6494  96.4686 14.33731260208737
CZ-4B R/B               
1 28059U 03049C   26030.97344458  .00000615  00000+0  15267-3 0  9990
2 28059  98.6834  24.4116 0047998 348.2242  11.7828 14.54974692181114
CZ-2C R/B               
1 28222U 04012C   26031.13960581  .00043746  00000+0  53202-3 0  9996
2 28222  97.7332  92.9865 0016673  89.8576 270.4591 15.60269125198412
SL-16 R/B               
1 28353U 04021B   26031.12070932 -.00000197  00000+0 -77978-4 0  9994
2 28353  71.0016 311.3365 0002664 103.8526 256.2893 14.14589877117528
CZ-4B R/B               
1 28415U 04035C   26031.07514192  .00007722  00000+0  27748-3 0  9991
2 28415  97.3557  65.7790 0034345 101.7037 258.8060 15.28353670174168
CZ-2C R/B               
1 28480U 04046B   26030.76155072  .00000245  00000+0  10691-3 0  9990
2 28480  98.1999 308.1000 0138214 267.0750  91.4608 14.26977277103090
ARIANE 5 R/B            
1 28499U 04049H   26030.97267581  .00001435  00000+0  16393-3 0  9992
2 28499  98.2568 198.0348 0085404 113.0404 247.9844 14.85179758140197
CZ-2D R/B               
1 28738U 05024B   26031.01852101  .00036839  00000+0  51249-3 0  9991
2 28738  97.3613  44.8798 0006561 138.4448 221.7307 15.56865302133919
