CCSDS_OMM_VERS = 2.0
CREATION_DATE  = 
ORIGINATOR     = 

OBJECT_NAME    = IDEFIX & ARIANE 42P R/B
OBJECT_ID      = 2002-021B
CENTER_NAME    = EARTH
REF_FRAME      = TEME
TIME_SYSTEM    = UTC
MEAN_ELEMENT_THEORY = SGP/SGP4

EPOCH          = 2026-01-30T17:43:46.466400
MEAN_MOTION    = 14.30996804
ECCENTRICITY   = .00109207
INCLINATION    = 98.5834
RA_OF_ASC_NODE = 329.8080
ARG_OF_PERICENTER = 303.0965
MEAN_ANOMALY   = 56.9169

EPHEMERIS_TYPE = 0
CLASSIFICATION_TYPE = U
NORAD_CAT_ID   = 27422
ELEMENT_SET_NO = 999
REV_AT_EPOCH   = 23859
BSTAR          = .17409213E-3
MEAN_MOTION_DOT = .414E-5
MEAN_MOTION_DDOT = 0

CCSDS_OMM_VERS = 2.0
CREATION_DATE  = 
ORIGINATOR     = 

OBJECT_NAME    = AQUA
OBJECT_ID      = 2002-022A
CENTER_NAME    = EARTH
REF_FRAME      = TEME
TIME_SYSTEM    = UTC
MEAN_ELEMENT_THEORY = SGP/SGP4

EPOCH          = 2026-01-31T04:23:41.645760
MEAN_MOTION    = 14.61877859
ECCENTRICITY   = .0001774
INCLINATION    = 98.4107
RA_OF_ASC_NODE = 357.8851
ARG_OF_PERICENTER = 60.4235
MEAN_ANOMALY   = 29.4076

EPHEMERIS_TYPE = 0
CLASSIFICATION_TYPE = U
NORAD_CAT_ID   = 27424
ELEMENT_SET_NO = 999
REV_AT_EPOCH   = 26325
BSTAR          = .27782E-3
MEAN_MOTION_DOT = .134E-4
MEAN_MOTION_DDOT = 0

CCSDS_OMM_VERS = 2.0
CREATION_DATE  = 
ORIGINATOR     = 

OBJECT_NAME    = CZ-4B R/B
OBJECT_ID      = 2002-024C
CENTER_NAME    = EARTH
REF_FRAME      = TEME
TIME_SYSTEM    = UTC
MEAN_ELEMENT_THEORY = SGP/SGP4

EPOCH          = 2026-01-31T03:51:14.724576
MEAN_MOTION    = 14.14540335
ECCENTRICITY   = .005096
INCLINATION    = 98.8920
RA_OF_ASC_NODE = 84.7417
ARG_OF_PERICENTER = 129.0104
MEAN_ANOMALY   = 297.9301

EPHEMERIS_TYPE = 0
CLASSIFICATION_TYPE = U
NORAD_CAT_ID   = 27432
ELEMENT_SET_NO = 999
REV_AT_EPOCH   = 22393
BSTAR          = .5074E-4
MEAN_MOTION_DOT = .54E-6
MEAN_MOTION_DDOT = 0

CCSDS_OMM_VERS = 2.0
CREATION_DATE  = 
ORIGINATOR     = 

OBJECT_NAME    = MIDORI II (ADEOS-II)
OBJECT_ID      = 2002-056A
CENTER_NAME    = EARTH
REF_FRAME      = TEME
TIME_SYSTEM    = UTC
MEAN_ELEMENT_THEORY = SGP/SGP4

EPOCH          = 2026-01-30T20:39:27.036576
MEAN_MOTION    = 14.29254077
ECCENTRICITY   = .0002061
INCLINATION    = 98.7704
RA_OF_ASC_NODE = 349.0937
ARG_OF_PERICENTER = 96.1274
MEAN_ANOMALY   = 264.0143

EPHEMERIS_TYPE = 0
CLASSIFICATION_TYPE = U
NORAD_CAT_ID   = 27597
ELEMENT_SET_NO = 999
REV_AT_EPOCH   = 20489
BSTAR          = .19145881E-3
MEAN_MOTION_DOT = .442E-5
MEAN_MOTION_DDOT = 0

CCSDS_OMM_VERS = 2.0
CREATION_DATE  = 
ORIGINATOR     = 

OBJECT_NAME    = H-2A R/B
OBJECT_ID      = 2002-056E
CENTER_NAME    = EARTH
REF_FRAME      = TEME
TIME_SYSTEM    = UTC
MEAN_ELEMENT_THEORY = SGP/SGP4

EPOCH          = 2026-01-31T03:38:28.205376
MEAN_MOTION    = 14.33731260
ECCENTRICITY   = .0069039
INCLINATION    = 98.3134
RA_OF_ASC_NODE = 352.9623
ARG_OF_PERICENTER = 273.6494
MEAN_ANOMALY   = 96.4686

EPHEMERIS_TYPE = 0
CLASSIFICATION_TYPE = U
NORAD_CAT_ID   = 27601
ELEMENT_SET_NO = 999
REV_AT_EPOCH   = 20873
BSTAR          = .15586E-3
MEAN_MOTION_DOT = .402E-5
MEAN_MOTION_DDOT = 0

CCSDS_OMM_VERS = 2.0
CREATION_DATE  = 
ORIGINATOR     = 

OBJECT_NAME    = CZ-4B R/B
OBJECT_ID      = 2003-049C
CENTER_NAME    = EARTH
REF_FRAME      = TEME
TIME_SYSTEM    = UTC
MEAN_ELEMENT_THEORY = SGP/SGP4

EPOCH          = 2026-01-30T23:21:45.611712
MEAN_MOTION    = 14.54974692
ECCENTRICITY   = .0047998
INCLINATION    = 98.6834
RA_OF_ASC_NODE = 24.4116
ARG_OF_PERICENTER = 348.2242
MEAN_ANOMALY   = 11.7828

EPHEMERIS_TYPE = 0
CLASSIFICATION_TYPE = U
NORAD_CAT_ID   = 28059
ELEMENT_SET_NO = 999
REV_AT_EPOCH   = 18111
BSTAR          = .15267E-3
MEAN_MOTION_DOT = .615E-5
MEAN_MOTION_DDOT = 0

CCSDS_OMM_VERS = 2.0
CREATION_DATE  = 
ORIGINATOR     = 

OBJECT_NAME    = CZ-2C R/B
OBJECT_ID      = 2004-012C
CENTER_NAME    = EARTH
REF_FRAME      = TEME
TIME_SYSTEM    = UTC
MEAN_ELEMENT_THEORY = SGP/SGP4

EPOCH          = 2026-01-31T03:21:01.941984
MEAN_MOTION    = 15.60269125
ECCENTRICITY   = .0016673
INCLINATION    = 97.7332
RA_OF_ASC_NODE = 92.9865
ARG_OF_PERICENTER = 89.8576
MEAN_ANOMALY   = 270.4591

EPHEMERIS_TYPE = 0
CLASSIFICATION_TYPE = U
NORAD_CAT_ID   = 28222
ELEMENT_SET_NO = 999
REV_AT_EPOCH   = 19841
BSTAR          = .53202E-3
MEAN_MOTION_DOT = .43746E-3
MEAN_MOTION_DDOT = 0

CCSDS_OMM_VERS = 2.0
CREATION_DATE  = 
ORIGINATOR     = 

OBJECT_NAME    = SL-16 R/B
OBJECT_ID      = 2004-021B
CENTER_NAME    = EARTH
REF_FRAME      = TEME
TIME_SYSTEM    = UTC
MEAN_ELEMENT_THEORY = SGP/SGP4

EPOCH          = 2026-01-31T02:53:49.285248
MEAN_MOTION    = 14.14589877
ECCENTRICITY   = .0002664
INCLINATION    = 71.0016
RA_OF_ASC_NODE = 311.3365
ARG_OF_PERICENTER = 103.8526
MEAN_ANOMALY   = 256.2893

EPHEMERIS_TYPE = 0
CLASSIFICATION_TYPE = U
NORAD_CAT_ID   = 28353
ELEMENT_SET_NO = 999
REV_AT_EPOCH   = 11752
BSTAR          = -.77978E-4
MEAN_MOTION_DOT = -.197E-5
MEAN_MOTION_DDOT = 0

CCSDS_OMM_VERS = 2.0
CREATION_DATE  = 
ORIGINATOR     = 

OBJECT_NAME    = CZ-4B R/B
OBJECT_ID      = 2004-035C
CENTER_NAME    = EARTH
REF_FRAME      = TEME
TIME_SYSTEM    = UTC
MEAN_ELEMENT_THEORY = SGP/SGP4

EPOCH          = 2026-01-31T01:48:12.261888
MEAN_MOTION    = 15.28353670
ECCENTRICITY   = .0034345
INCLINATION    = 97.3557
RA_OF_ASC_NODE = 65.7790
ARG_OF_PERICENTER = 101.7037
MEAN_ANOMALY   = 258.8060

EPHEMERIS_TYPE = 0
CLASSIFICATION_TYPE = U
NORAD_CAT_ID   = 28415
ELEMENT_SET_NO = 999
REV_AT_EPOCH   = 17416
BSTAR          = .27748E-3
MEAN_MOTION_DOT = .7722E-4
MEAN_MOTION_DDOT = 0

CCSDS_OMM_VERS = 2.0
CREATION_DATE  = 
ORIGINATOR     = 

OBJECT_NAME    = CZ-2C R/B
OBJECT_ID      = 2004-046B
CENTER_NAME    = EARTH
REF_FRAME      = TEME
TIME_SYSTEM    = UTC
MEAN_ELEMENT_THEORY = SGP/SGP4

EPOCH          = 2026-01-30T18:16:37.982208
MEAN_MOTION    = 14.26977277
ECCENTRICITY   = .0138214
INCLINATION    = 98.1999
RA_OF_ASC_NODE = 308.1000
ARG_OF_PERICENTER = 267.0750
MEAN_ANOMALY   = 91.4608

EPHEMERIS_TYPE = 0
CLASSIFICATION_TYPE = U
NORAD_CAT_ID   = 28480
ELEMENT_SET_NO = 999
REV_AT_EPOCH   = 10309
BSTAR          = .1069124E-3
MEAN_MOTION_DOT = .245E-5
MEAN_MOTION_DDOT = 0

CCSDS_OMM_VERS = 2.0
CREATION_DATE  = 
ORIGINATOR     = 

OBJECT_NAME    = ARIANE 5 R/B
OBJECT_ID      = 2004-049H
CENTER_NAME    = EARTH
REF_FRAME      = TEME
TIME_SYSTEM    = UTC
MEAN_ELEMENT_THEORY = SGP/SGP4

EPOCH          = 2026-01-30T23:20:39.189984
MEAN_MOTION    = 14.85179758
ECCENTRICITY   = .0085404
INCLINATION    = 98.2568
RA_OF_ASC_NODE = 198.0348
ARG_OF_PERICENTER = 113.0404
MEAN_ANOMALY   = 247.9844

EPHEMERIS_TYPE = 0
CLASSIFICATION_TYPE = U
NORAD_CAT_ID   = 28499
ELEMENT_SET_NO = 999
REV_AT_EPOCH   = 14019
BSTAR          = .16393E-3
MEAN_MOTION_DOT = .1435E-4
MEAN_MOTION_DDOT = 0

CCSDS_OMM_VERS = 2.0
CREATION_DATE  = 
ORIGINATOR     = 

OBJECT_NAME    = CZ-2D R/B
OBJECT_ID      = 2005-024B
CENTER_NAME    = EARTH
REF_FRAME      = TEME
TIME_SYSTEM    = UTC
MEAN_ELEMENT_THEORY = SGP/SGP4

EPOCH          = 2026-01-31T00:26:40.215264
MEAN_MOTION    = 15.56865302
ECCENTRICITY   = .0006561
INCLINATION    = 97.3613
RA_OF_ASC_NODE = 44.8798
ARG_OF_PERICENTER = 138.4448
MEAN_ANOMALY   = 221.7307

EPHEMERIS_TYPE = 0
CLASSIFICATION_TYPE = U
NORAD_CAT_ID   = 28738
ELEMENT_SET_NO = 999
REV_AT_EPOCH   = 13391
BSTAR          = .51249E-3
MEAN_MOTION_DOT = .36839E-3
MEAN_MOTION_DDOT = 0

